[{"OBJECT_NAME":"STARLINK-35479","OBJECT_ID":"2025-253H","EPOCH":"2026-03-09T10:14:25.936512","MEAN_MOTION":15.27610344,"ECCENTRICITY":6.014e-5,"INCLINATION":42.9949,"RA_OF_ASC_NODE":214.038,"ARG_OF_PERICENTER":172.3535,"MEAN_ANOMALY":187.7326,"EPHEMERIS_TYPE":0,"CLASSIFICATION_TYPE":"U","NORAD_CAT_ID":66326,"ELEMENT_SET_NO":999,"REV_AT_EPOCH":2020,"BSTAR":0.0012142397,"MEAN_MOTION_DOT":0.00033333,"MEAN_MOTION_DDOT":0},{"OBJECT_NAME":"OBJECT H","OBJECT_ID":"2022-023H","EPOCH":"2026-03-09T22:57:41.313888","MEAN_MOTION":15.21889274,"ECCENTRICITY":0.00933376,"INCLINATION":63.6345,"RA_OF_ASC_NODE":356.5929,"ARG_OF_PERICENTER":305.1945,"MEAN_ANOMALY":54.0457,"EPHEMERIS_TYPE":0,"CLASSIFICATION_TYPE":"U","NORAD_CAT_ID":51953,"ELEMENT_SET_NO":999,"REV_AT_EPOCH":22114,"BSTAR":0.00043867493,"MEAN_MOTION_DOT":0.00011084,"MEAN_MOTION_DDOT":0}]
